[{"OBJECT_NAME":"STARLINK-34205","OBJECT_ID":"2025-144T","EPOCH":"2026-03-09T13:44:31.586784","MEAN_MOTION":15.30199271,"ECCENTRICITY":0.000114,"INCLINATION":53.16,"RA_OF_ASC_NODE":181.6051,"ARG_OF_PERICENTER":84.7682,"MEAN_ANOMALY":275.3449,"EPHEMERIS_TYPE":0,"CLASSIFICATION_TYPE":"U","NORAD_CAT_ID":64741,"ELEMENT_SET_NO":999,"REV_AT_EPOCH":3969,"BSTAR":0.0012715,"MEAN_MOTION_DOT":0.0003749,"MEAN_MOTION_DDOT":0},{"OBJECT_NAME":"GEOSCAN 3 (RS92S3)","OBJECT_ID":"2025-155T","EPOCH":"2026-03-09T22:52:10.587648","MEAN_MOTION":15.31696739,"ECCENTRICITY":0.00068078,"INCLINATION":97.4455,"RA_OF_ASC_NODE":37.9971,"ARG_OF_PERICENTER":154.1387,"MEAN_ANOMALY":206.0196,"EPHEMERIS_TYPE":0,"CLASSIFICATION_TYPE":"U","NORAD_CAT_ID":64893,"ELEMENT_SET_NO":999,"REV_AT_EPOCH":6564,"BSTAR":0.00078414081,"MEAN_MOTION_DOT":0.00023985,"MEAN_MOTION_DDOT":0}]
